TIANYAN 01              
1 44881U 19093C   24045.47380140  .00002269  00000+0  28330-3 0  9996
2 44881  97.8386 124.6392 0014781  12.8893 347.2696 14.83273696224708
RS-44 & BREEZE-KM R/B   
1 44909U 19096E   24044.88165761  .00000023  00000+0  50523-4 0  9990
2 44909  82.5234 187.3520 0217039 342.1152  17.2393 12.79726462193079
BY70-2                  
1 45857U 20042B   24045.46252364  .00077447  00000+0  51054-2 0  9999
2 45857  97.9153 133.6176 0008428 273.0944  86.9318 15.07110443195795
SALSAT                  
1 46495U 20068K   24045.45492529  .00011109  00000+0  66811-3 0  9995
2 46495  97.8021   1.9733 0015226  23.5910 336.6014 15.10935255185616
RADFXSAT-2 (AO-109)     
1 47311U 21002C   24045.50393263  .00177406  00000+0  15793-2 0  9998
2 47311  60.6703 192.1363 0024503  69.1183 291.2545 15.67220095171843
UVSQ-SAT                
1 47438U 21006AB  24045.10963124  .00047807  00000+0  13573-2 0  9992
2 47438  97.3480 105.0123 0006700 307.3406  52.7227 15.36026693169627
LEDSAT                  
1 49069U 21073D   24045.15496707  .00021684  00000+0  99698-3 0  9999
2 49069  97.4525 117.4915 0021293   2.5285 357.6054 15.20167899137581
XW-3 (CAS-9)            
1 50466U 21131B   24045.47030063  .00001338  00000+0  44448-3 0  9998
2 50466  98.5341 131.1353 0005104 129.1298 231.0344 14.39361781112208
TEVEL-3                 
1 50988U 22002E   24045.49599059  .00079294  00000+0  18464-2 0  9996
2 50988  97.3982 117.8517 0005200  91.9864 268.1979 15.41978095115866
TEVEL-8                 
1 50989U 22002F   24045.46243788  .00076319  00000+0  17845-2 0  9996
2 50989  97.4001 117.9015 0005229  90.5078 269.6768 15.41865938115859
TEVEL-5                 
1 50998U 22002Q   24045.44536138  .00080725  00000+0  17611-2 0  9995
2 50998  97.3976 118.6133 0005744  83.9786 276.2117 15.43918824115916
TEVEL-6                 
1 50999U 22002R   24045.44569600  .00079930  00000+0  17463-2 0  9997
2 50999  97.3974 118.5987 0005721  83.8446 276.3454 15.43878979115919
TEVEL-1                 
1 51013U 22002AF  24045.45099609  .00074230  00000+0  17357-2 0  9993
2 51013  97.3976 117.6993 0005088  91.4840 268.6990 15.41875024115853
TEVEL-7                 
1 51062U 22002CG  24045.45757823  .00075987  00000+0  17726-2 0  9996
2 51062  97.3996 117.8677 0005208  90.7524 269.4320 15.41937526115857
TEVEL-4                 
1 51063U 22002CH  24045.47851980  .00077005  00000+0  18063-2 0  9996
2 51063  97.3995 117.8315 0005122  90.2316 269.9517 15.41767214115853
TEVEL-2                 
1 51069U 22002CP  24045.30130903  .00078175  00000+0  18209-2 0  9990
2 51069  97.3980 117.6208 0005182  92.6501 267.5339 15.41973565115832
GREENCUBE               
1 53106U 22080B   24043.52023407 -.00000003  00000+0  00000+0 0  9995
2 53106  70.1295 236.1834 0008299 131.4215 228.7158  6.42557813 37197
CYCLOPS (RS29S)         
1 53373U 22096D   24045.48866225  .00495863  92886-4  18508-2 0  9992
2 53373  97.3870 324.6973 0008031 107.6287 252.5863 15.87896694 85315
MONITOR-1 (RS32S)       
1 53374U 22096E   24045.15796168  .00303671  00000+0  18291-2 0  9991
2 53374  97.3846 323.1137 0006551  92.8682 267.3333 15.76822294 85199
KUZBASS-300 (RS34S)     
1 53375U 22096F   24045.46036036  .00120342  00000+0  15001-2 0  9995
2 53375  97.3955 321.0814 0004191  82.8393 277.3339 15.59489326 85076
UTMN (RS23S)            
1 53376U 22096G   24045.47134171  .00134509  00000+0  14978-2 0  9998
2 53376  97.3932 321.6387 0004877  84.1592 276.0221 15.62391799 85111
MIET-AIS (RS28S)        
1 53377U 22096H   24045.48441398  .00101520  00000+0  14298-2 0  9994
2 53377  97.3978 320.6378 0003881  82.8576 277.3120 15.56283129 85046
KAI-1 (RS26S)           
1 53378U 22096J   24045.51030770  .00060737  00000+0  10599-2 0  9991
2 53378  97.4021 319.4677 0003717  76.6868 283.4798 15.50494788 84966
ISOI (RS19S)            
1 53381U 22096M   24045.52144129  .00101533  00000+0  13548-2 0  9997
2 53381  97.3995 321.3259 0002676 100.5859 259.5697 15.57745366 85092
CUBESX-HSE-2 (RS21S)    
1 53383U 22096P   24045.50781346  .00133250  00000+0  15110-2 0  9993
2 53383  97.3944 321.9207 0002907 110.5079 249.6491 15.61932626 85138
SIREN (RS30S)           
1 53384U 22096Q   24045.49493288  .00086248  00000+0  13226-2 0  9997
2 53384  97.3992 320.4938 0001849 112.0777 248.0673 15.54014824 85030
GEOSCAN-EDELVEIS (RS20S)
1 53385U 22096R   24045.15613813  .01730278  23132-2  19664-2 0  9995
2 53385  97.3727 326.1492 0009062 132.1703 228.0351 16.09695043 85414
CAS-5A (FO-118)         
1 54684U 22167C   24045.48451813  .00033875  00000+0  14492-2 0  9991
2 54684  97.5871 188.2648 0011097 217.9089 142.1366 15.22689465 65436
STRATOSAT-TK 1 (RS52S)  
1 57167U 23091B   24045.44965466  .00019365  00000+0  12477-2 0  9996
2 57167  97.6306  99.1520 0016525 178.5456 181.5823 15.08259515 34882
UMKA 1 (RS40S)          
1 57172U 23091G   24045.46844489  .00008449  00000+0  58501-3 0  9995
2 57172  97.6317  98.8191 0017407 177.3643 182.7679 15.05791997 34867
CUBESX-HSE 3 (RS42S)    
1 57178U 23091N   24045.43916346  .00012568  00000+0  85205-3 0  9998
2 57178  97.6338  98.9692 0018181 174.3179 185.8257 15.06453189 34869
MONITOR-4 (RS57S)       
1 57182U 23091S   24045.46254013  .00010685  00000+0  73055-3 0  9990
2 57182  97.6338  98.9042 0018553 173.5789 186.5679 15.06173543 34863
MONITOR-2 (RS39S)       
1 57184U 23091U   24045.45196176  .00006769  00000+0  46553-3 0  9997
2 57184  97.6338  99.0855 0014902 166.7965 193.3655 15.06152924 34874
SVYATOBOR 1 (RS60S)     
1 57187U 23091X   24045.44083576  .00010519  00000+0  70325-3 0  9990
2 57187  97.6336  99.2569 0014481 165.6333 194.5309 15.07068979 34885
VIZARD-METEO (RS38S)    
1 57189U 23091Z   24045.48784657  .00013283  00000+0  86564-3 0  9997
2 57189  97.6339  99.4795 0013472 162.8113 197.3573 15.07963431 34901
NANOZOND 1 (RS49S)      
1 57190U 23091AA  24045.44741300  .00017083  00000+0  10707-2 0  9990
2 57190  97.6306  99.6074 0011903 167.9236 192.2280 15.09354875 34916
POLYTECH-UNIVERSE 3 (R*)
1 57191U 23091AB  24045.44807657  .00007174  00000+0  49407-3 0  9999
2 57191  97.6300  98.8397 0020031 185.6010 174.4996 15.06007025 34868
UTMN 2 (RS27S)          
1 57203U 23091AP  24045.44739412  .00011606  00000+0  76318-3 0  9992
2 57203  97.6329  99.3781 0013840 163.4065 196.7618 15.07662013 34896
ARCCUBE 1 (RS25S)       
1 57205U 23091AR  24045.48831872  .00021320  00000+0  13161-2 0  9991
2 57205  97.6290  99.6514 0012033 169.4948 190.6535 15.09861007 34922
KUZGTU 1 (RS47S)        
1 57217U 23091AV  24045.43954008  .00012151  00000+0  82543-3 0  9999
2 57217  97.6313  98.8946 0018067 175.5511 184.5880 15.06388600 34866
HADES-D (SO-121)        
1 58567U 23174CY  24045.17418999  .00048148  00000+0  23419-2 0  9996
2 58567  97.4689 121.6401 0014181 305.5858  54.4054 15.18149021 14908
